{
  "type": "FeatureCollection",
  "features": [
    {
      "type": "Feature",
      "properties": {
        "norad_id": 36744,
        "name": "COMS 1",
        "group": "weather",
        "lat": -4.32276686274793,
        "lon": -12.813436627848606,
        "alt_km": 35786.019945330896,
        "timestamp": "2025-12-06T09:34:16.561377+00:00",
        "meta_object_name": "COMS 1",
        "meta_object_id": "2010-032A",
        "meta_epoch": "2025-12-05T20:25:51.729024",
        "meta_mean_motion": 1.00271726,
        "meta_eccentricity": 0.00011815,
        "meta_inclination": 4.3237,
        "meta_ra_of_asc_node": 78.0742,
        "meta_arg_of_pericenter": 187.5416,
        "meta_mean_anomaly": 243.9215,
        "meta_ephemeris_type": 0,
        "meta_classification_type": "U",
        "meta_norad_cat_id": 36744,
        "meta_element_set_no": 999,
        "meta_rev_at_epoch": 4915,
        "meta_bstar": 0,
        "meta_mean_motion_dot": -3.37e-06,
        "meta_mean_motion_ddot": 0,
        "tle_line1": "1 36744U 10032A   25339.85129316 -.00000337  00000+0  00000+0 0  9999",
        "tle_line2": "2 36744   4.3237  78.0742 0001181 187.5416 243.9215  1.00271726 49157"
      },
      "geometry": {
        "type": "Point",
        "coordinates": [
          -12.813436627848606,
          -4.32276686274793
        ]
      }
    },
    {
      "type": "Feature",
      "properties": {
        "norad_id": 37214,
        "name": "FENGYUN 3B",
        "group": "weather",
        "lat": 22.608447730116907,
        "lon": -155.88773398416325,
        "alt_km": 855.1830110997562,
        "timestamp": "2025-12-06T09:34:16.561390+00:00",
        "meta_object_name": "FENGYUN 3B",
        "meta_object_id": "2010-059A",
        "meta_epoch": "2025-12-05T23:12:39.055680",
        "meta_mean_motion": 14.14786773,
        "meta_eccentricity": 0.00223279,
        "meta_inclination": 98.9918,
        "meta_ra_of_asc_node": 19.8969,
        "meta_arg_of_pericenter": 16.8972,
        "meta_mean_anomaly": 102.4879,
        "meta_ephemeris_type": 0,
        "meta_classification_type": "U",
        "meta_norad_cat_id": 37214,
        "meta_element_set_no": 999,
        "meta_rev_at_epoch": 78010,
        "meta_bstar": 0.00012158303,
        "meta_mean_motion_dot": 1.89e-06,
        "meta_mean_motion_ddot": 0,
        "tle_line1": "1 37214U 10059A   25339.96711870  .00000189  00000+0  12158-3 0  9990",
        "tle_line2": "2 37214  98.9918  19.8969 0022327  16.8972 102.4879 14.14786773780109"
      },
      "geometry": {
        "type": "Point",
        "coordinates": [
          -155.88773398416325,
          22.608447730116907
        ]
      }
    },
    {
      "type": "Feature",
      "properties": {
        "norad_id": 37849,
        "name": "SUOMI NPP",
        "group": "weather",
        "lat": -68.32151880023416,
        "lon": 74.92907177097243,
        "alt_km": 834.9372331066697,
        "timestamp": "2025-12-06T09:34:16.561401+00:00",
        "meta_object_name": "SUOMI NPP",
        "meta_object_id": "2011-061A",
        "meta_epoch": "2025-12-05T22:14:48.875712",
        "meta_mean_motion": 14.19511143,
        "meta_eccentricity": 0.00020039,
        "meta_inclination": 98.7762,
        "meta_ra_of_asc_node": 277.3302,
        "meta_arg_of_pericenter": 132.4085,
        "meta_mean_anomaly": 227.7261,
        "meta_ephemeris_type": 0,
        "meta_classification_type": "U",
        "meta_norad_cat_id": 37849,
        "meta_element_set_no": 999,
        "meta_rev_at_epoch": 73102,
        "meta_bstar": 0.00011734322,
        "meta_mean_motion_dot": 2.03e-06,
        "meta_mean_motion_ddot": 0,
        "tle_line1": "1 37849U 11061A   25339.92695458  .00000203  00000+0  11734-3 0  9993",
        "tle_line2": "2 37849  98.7762 277.3302 0002003 132.4085 227.7261 14.19511143731024"
      },
      "geometry": {
        "type": "Point",
        "coordinates": [
          74.92907177097243,
          -68.32151880023416
        ]
      }
    },
    {
      "type": "Feature",
      "properties": {
        "norad_id": 38552,
        "name": "METEOSAT-10 (MSG-3)",
        "group": "weather",
        "lat": 1.5984026887263756,
        "lon": -140.83213955221007,
        "alt_km": 35784.255741844434,
        "timestamp": "2025-12-06T09:34:16.561414+00:00",
        "meta_object_name": "METEOSAT-10 (MSG-3)",
        "meta_object_id": "2012-035B",
        "meta_epoch": "2025-12-05T22:15:30.061728",
        "meta_mean_motion": 1.00272921,
        "meta_eccentricity": 8.756e-05,
        "meta_inclination": 4.2122,
        "meta_ra_of_asc_node": 61.734,
        "meta_arg_of_pericenter": 227.3166,
        "meta_mean_anomaly": 119.9168,
        "meta_ephemeris_type": 0,
        "meta_classification_type": "U",
        "meta_norad_cat_id": 38552,
        "meta_element_set_no": 999,
        "meta_rev_at_epoch": 4891,
        "meta_bstar": 0,
        "meta_mean_motion_dot": 1e-08,
        "meta_mean_motion_ddot": 0,
        "tle_line1": "1 38552U 12035B   25339.92743127  .00000001  00000+0  00000+0 0  9990",
        "tle_line2": "2 38552   4.2122  61.7340 0000875 227.3166 119.9168  1.00272921 48915"
      },
      "geometry": {
        "type": "Point",
        "coordinates": [
          -140.83213955221007,
          1.5984026887263756
        ]
      }
    },
    {
      "type": "Feature",
      "properties": {
        "norad_id": 38771,
        "name": "METOP-B",
        "group": "weather",
        "lat": 57.98200140641711,
        "lon": 16.323085165639668,
        "alt_km": 815.2739046374618,
        "timestamp": "2025-12-06T09:34:16.561425+00:00",
        "meta_object_name": "METOP-B",
        "meta_object_id": "2012-049A",
        "meta_epoch": "2025-12-05T23:09:27.925920",
        "meta_mean_motion": 14.21404492,
        "meta_eccentricity": 0.00026138,
        "meta_inclination": 98.6808,
        "meta_ra_of_asc_node": 30.0383,
        "meta_arg_of_pericenter": 159.2322,
        "meta_mean_anomaly": 200.8962,
        "meta_ephemeris_type": 0,
        "meta_classification_type": "U",
        "meta_norad_cat_id": 38771,
        "meta_element_set_no": 999,
        "meta_rev_at_epoch": 68581,
        "meta_bstar": 0.00014991403,
        "meta_mean_motion_dot": 2.84e-06,
        "meta_mean_motion_ddot": 0,
        "tle_line1": "1 38771U 12049A   25339.96490655  .00000284  00000+0  14991-3 0  9998",
        "tle_line2": "2 38771  98.6808  30.0383 0002613 159.2322 200.8962 14.21404492685816"
      },
      "geometry": {
        "type": "Point",
        "coordinates": [
          16.323085165639668,
          57.98200140641711
        ]
      }
    },
    {
      "type": "Feature",
      "properties": {
        "norad_id": 39216,
        "name": "INSAT-3D",
        "group": "weather",
        "lat": -1.4126800228439862,
        "lon": -11.444818704362918,
        "alt_km": 35787.990593373164,
        "timestamp": "2025-12-06T09:34:16.561437+00:00",
        "meta_object_name": "INSAT-3D",
        "meta_object_id": "2013-038B",
        "meta_epoch": "2025-12-05T21:09:37.140768",
        "meta_mean_motion": 1.00272643,
        "meta_eccentricity": 0.00017746,
        "meta_inclination": 1.4261,
        "meta_ra_of_asc_node": 85.0666,
        "meta_arg_of_pericenter": 158.7919,
        "meta_mean_anomaly": 278.0131,
        "meta_ephemeris_type": 0,
        "meta_classification_type": "U",
        "meta_norad_cat_id": 39216,
        "meta_element_set_no": 999,
        "meta_rev_at_epoch": 4514,
        "meta_bstar": 0,
        "meta_mean_motion_dot": -3.3e-06,
        "meta_mean_motion_ddot": 0,
        "tle_line1": "1 39216U 13038B   25339.88167987 -.00000330  00000+0  00000+0 0  9997",
        "tle_line2": "2 39216   1.4261  85.0666 0001774 158.7919 278.0131  1.00272643 45148"
      },
      "geometry": {
        "type": "Point",
        "coordinates": [
          -11.444818704362918,
          -1.4126800228439862
        ]
      }
    },
    {
      "type": "Feature",
      "properties": {
        "norad_id": 39260,
        "name": "FENGYUN 3C",
        "group": "weather",
        "lat": 73.9686833023494,
        "lon": -72.87310480290333,
        "alt_km": 840.4227956285958,
        "timestamp": "2025-12-06T09:34:16.561449+00:00",
        "meta_object_name": "FENGYUN 3C",
        "meta_object_id": "2013-052A",
        "meta_epoch": "2025-12-05T23:02:00.931200",
        "meta_mean_motion": 14.15693196,
        "meta_eccentricity": 0.00139459,
        "meta_inclination": 98.4756,
        "meta_ra_of_asc_node": 317.9704,
        "meta_arg_of_pericenter": 216.3294,
        "meta_mean_anomaly": 143.6935,
        "meta_ephemeris_type": 0,
        "meta_classification_type": "U",
        "meta_norad_cat_id": 39260,
        "meta_element_set_no": 999,
        "meta_rev_at_epoch": 63122,
        "meta_bstar": 0.00013798275,
        "meta_mean_motion_dot": 2.3e-06,
        "meta_mean_motion_ddot": 0,
        "tle_line1": "1 39260U 13052A   25339.95973300  .00000230  00000+0  13798-3 0  9994",
        "tle_line2": "2 39260  98.4756 317.9704 0013945 216.3294 143.6935 14.15693196631221"
      },
      "geometry": {
        "type": "Point",
        "coordinates": [
          -72.87310480290333,
          73.9686833023494
        ]
      }
    }
  ]
}